start=new Date('2023-03-11T00:00:00.000Z').valueOf();
sats=[{"OBJECT_NAME":"STARLINK-3127","BSTAR":"0.00175430000000","MEAN_MOTION_DOT":"0.00027763","LAUNCH_DATE":"2021-11-13","OBJECT_TYPE":"PAYLOAD","INCLINATION":"53.2167","SEMIMAJOR_AXIS":"6917.798","RA_OF_ASC_NODE":"95.7200","EPHEMERIS_TYPE":"0","APOAPSIS":"540.637","MEAN_ELEMENT_THEORY":"SGP4","DECAY_DATE":null,"MEAN_MOTION":"15.08867117","CLASSIFICATION_TYPE":"U","OBJECT_ID":"2021-104AU","PERIAPSIS":"538.688","NORAD_CAT_ID":"49450","ELEMENT_SET_NO":"999","TLE_LINE1":"1 49450U 21104AU  23069.47741269  .00027763  00000-0  17543-2 0  9997","FILE":"3856975","TLE_LINE2":"2 49450  53.2167  95.7200 0001408  87.0274 273.0879 15.08867117 73697","REF_FRAME":"TEME","PERIOD":"95.436","GP_ID":"227815004","EPOCH":"2023-03-10T11:27:28.456416","MEAN_ANOMALY":"273.0879","RCS_SIZE":"LARGE","CENTER_NAME":"EARTH","SITE":"AFETR","MEAN_MOTION_DDOT":"0.0000000000000","ECCENTRICITY":"0.00014080","TIME_SYSTEM":"UTC","ARG_OF_PERICENTER":"87.0274","COUNTRY_CODE":"US","REV_AT_EPOCH":"7369"},{"MEAN_MOTION_DOT":"0.00021073","BSTAR":"0.00133820000000","OBJECT_TYPE":"PAYLOAD","LAUNCH_DATE":"2021-11-13","OBJECT_NAME":"STARLINK-3125","OBJECT_ID":"2021-104AV","ELEMENT_SET_NO":"999","TLE_LINE1":"1 49451U 21104AV  23069.79759226  .00021073  00000-0  13382-2 0  9990","FILE":"3856975","TLE_LINE2":"2 49451  53.2145  94.2806 0001607  82.2270 277.8905 15.08839388 73482","PERIAPSIS":"538.636","NORAD_CAT_ID":"49451","EPHEMERIS_TYPE":"0","APOAPSIS":"540.859","INCLINATION":"53.2145","SEMIMAJOR_AXIS":"6917.882","RA_OF_ASC_NODE":"94.2806","CLASSIFICATION_TYPE":"U","MEAN_ELEMENT_THEORY":"SGP4","DECAY_DATE":null,"MEAN_MOTION":"15.08839388","RCS_SIZE":"LARGE","GP_ID":"227815254","REF_FRAME":"TEME","PERIOD":"95.438","MEAN_ANOMALY":"277.8905","EPOCH":"2023-03-10T19:08:31.971264","TIME_SYSTEM":"UTC","ECCENTRICITY":"0.00016070","REV_AT_EPOCH":"7348","COUNTRY_CODE":"US","ARG_OF_PERICENTER":"82.2270","CENTER_NAME":"EARTH","MEAN_MOTION_DDOT":"0.0000000000000","SITE":"AFETR"},{"REV_AT_EPOCH":"7348","COUNTRY_CODE":"US","ARG_OF_PERICENTER":"102.0895","TIME_SYSTEM":"UTC","ECCENTRICITY":"0.00009860","MEAN_MOTION_DDOT":"0.0000000000000","SITE":"AFETR","CENTER_NAME":"EARTH","RCS_SIZE":"LARGE","MEAN_ANOMALY":"258.0207","EPOCH":"2023-03-10T18:52:36.852960","GP_ID":"227816006","REF_FRAME":"TEME","PERIOD":"95.437","TLE_LINE1":"1 49452U 21104AW  23069.78653765 -.00000863  00000-0 -36145-4 0  9991","ELEMENT_SET_NO":"999","FILE":"3856975","TLE_LINE2":"2 49452  53.2140  94.3583 0000986 102.0895 258.0207 15.08841988 73489","PERIAPSIS":"539.057","NORAD_CAT_ID":"49452","OBJECT_ID":"2021-104AW","CLASSIFICATION_TYPE":"U","MEAN_ELEMENT_THEORY":"SGP4","MEAN_MOTION":"15.08841988","DECAY_DATE":null,"EPHEMERIS_TYPE":"0","APOAPSIS":"540.421","INCLINATION":"53.2140","SEMIMAJOR_AXIS":"6917.874","RA_OF_ASC_NODE":"94.3583","OBJECT_TYPE":"PAYLOAD","LAUNCH_DATE":"2021-11-13","MEAN_MOTION_DOT":"-0.00000863","BSTAR":"-0.00003614500000","OBJECT_NAME":"STARLINK-3150"},{"OBJECT_TYPE":"PAYLOAD","LAUNCH_DATE":"2021-11-13","MEAN_MOTION_DOT":"0.00076371","BSTAR":"0.00477600000000","OBJECT_NAME":"STARLINK-3129","TLE_LINE1":"1 49453U 21104AX  23069.91667824  .00076371  00000-0  47760-2 0  9996","FILE":"3856975","ELEMENT_SET_NO":"999","TLE_LINE2":"2 49453  53.2138  93.8320 0001441  93.7386 188.4527 15.08756356  1305","PERIAPSIS":"539.004","NORAD_CAT_ID":"49453","OBJECT_ID":"2021-104AX","CLASSIFICATION_TYPE":"U","MEAN_ELEMENT_THEORY":"SGP4","DECAY_DATE":null,"MEAN_MOTION":"15.08756356","EPHEMERIS_TYPE":"0","APOAPSIS":"540.998","INCLINATION":"53.2138","RA_OF_ASC_NODE":"93.8320","SEMIMAJOR_AXIS":"6918.136","RCS_SIZE":"LARGE","MEAN_ANOMALY":"188.4527","EPOCH":"2023-03-10T22:00:00.999936","GP_ID":"227815757","REF_FRAME":"TEME","PERIOD":"95.443","COUNTRY_CODE":"US","REV_AT_EPOCH":"130","ARG_OF_PERICENTER":"93.7386","TIME_SYSTEM":"UTC","ECCENTRICITY":"0.00014410","MEAN_MOTION_DDOT":"0.0000000000000","SITE":"AFETR","CENTER_NAME":"EARTH"},{"RCS_SIZE":"LARGE","MEAN_ANOMALY":"264.4186","EPOCH":"2023-03-10T19:03:11.760768","GP_ID":"227814505","REF_FRAME":"TEME","PERIOD":"95.436","REV_AT_EPOCH":"7348","COUNTRY_CODE":"US","ARG_OF_PERICENTER":"95.6923","TIME_SYSTEM":"UTC","ECCENTRICITY":"0.00010250","MEAN_MOTION_DDOT":"0.0000000000000","SITE":"AFETR","CENTER_NAME":"EARTH","OBJECT_TYPE":"PAYLOAD","LAUNCH_DATE":"2021-11-13","MEAN_MOTION_DOT":"0.00006171","BSTAR":"0.00040517000000","OBJECT_NAME":"STARLINK-3160","TLE_LINE1":"1 49454U 21104AY  23069.79388612  .00006171  00000-0  40517-3 0  9993","FILE":"3856975","ELEMENT_SET_NO":"999","TLE_LINE2":"2 49454  53.2140  94.2953 0001025  95.6923 264.4186 15.08864363 73484","PERIAPSIS":"538.962","NORAD_CAT_ID":"49454","OBJECT_ID":"2021-104AY","CLASSIFICATION_TYPE":"U","MEAN_ELEMENT_THEORY":"SGP4","MEAN_MOTION":"15.08864363","DECAY_DATE":null,"EPHEMERIS_TYPE":"0","APOAPSIS":"540.380","INCLINATION":"53.2140","SEMIMAJOR_AXIS":"6917.806","RA_OF_ASC_NODE":"94.2953"},{"RCS_SIZE":"LARGE","GP_ID":"227814755","REF_FRAME":"TEME","PERIOD":"95.437","MEAN_ANOMALY":"276.6437","EPOCH":"2023-03-10T18:42:01.177056","TIME_SYSTEM":"UTC","ECCENTRICITY":"0.00017660","COUNTRY_CODE":"US","REV_AT_EPOCH":"7348","ARG_OF_PERICENTER":"83.4756","CENTER_NAME":"EARTH","MEAN_MOTION_DDOT":"0.0000000000000","SITE":"AFETR","MEAN_MOTION_DOT":"0.00002084","BSTAR":"0.00014898000000","OBJECT_TYPE":"PAYLOAD","LAUNCH_DATE":"2021-11-13","OBJECT_NAME":"STARLINK-3145","OBJECT_ID":"2021-104AZ","FILE":"3856975","TLE_LINE1":"1 49455U 21104AZ  23069.77918029  .00002084  00000-0  14898-3 0  9995","ELEMENT_SET_NO":"999","TLE_LINE2":"2 49455  53.2140  94.3629 0001766  83.4756 276.6437 15.08844731 73488","PERIAPSIS":"538.509","NORAD_CAT_ID":"49455","EPHEMERIS_TYPE":"0","APOAPSIS":"540.953","INCLINATION":"53.2140","SEMIMAJOR_AXIS":"6917.866","RA_OF_ASC_NODE":"94.3629","CLASSIFICATION_TYPE":"U","MEAN_ELEMENT_THEORY":"SGP4","MEAN_MOTION":"15.08844731","DECAY_DATE":null},{"MEAN_MOTION_DOT":"0.00012858","BSTAR":"0.00082423000000","OBJECT_TYPE":"PAYLOAD","LAUNCH_DATE":"2021-11-13","OBJECT_NAME":"STARLINK-3124","OBJECT_ID":"2021-104BA","TLE_LINE2":"2 49456  53.2151  94.3570 0001365  91.3279 268.7870 15.08851015 73485","TLE_LINE1":"1 49456U 21104BA  23069.79118024  .00012858  00000-0  82423-3 0  9994","FILE":"3856975","ELEMENT_SET_NO":"999","NORAD_CAT_ID":"49456","PERIAPSIS":"538.767","APOAPSIS":"540.656","EPHEMERIS_TYPE":"0","RA_OF_ASC_NODE":"94.3570","SEMIMAJOR_AXIS":"6917.847","INCLINATION":"53.2151","CLASSIFICATION_TYPE":"U","MEAN_MOTION":"15.08851015","DECAY_DATE":null,"MEAN_ELEMENT_THEORY":"SGP4","RCS_SIZE":"LARGE","GP_ID":"227815507","PERIOD":"95.437","REF_FRAME":"TEME","MEAN_ANOMALY":"268.7870","EPOCH":"2023-03-10T18:59:17.972736","TIME_SYSTEM":"UTC","ECCENTRICITY":"0.00013650","REV_AT_EPOCH":"7348","COUNTRY_CODE":"US","ARG_OF_PERICENTER":"91.3279","CENTER_NAME":"EARTH","MEAN_MOTION_DDOT":"0.0000000000000","SITE":"AFETR"},{"MEAN_ANOMALY":"260.6335","EPOCH":"2023-03-10T18:36:43.020288","GP_ID":"227816257","REF_FRAME":"TEME","PERIOD":"95.437","RCS_SIZE":"LARGE","MEAN_MOTION_DDOT":"0.0000000000000","SITE":"AFETR","CENTER_NAME":"EARTH","REV_AT_EPOCH":"7348","COUNTRY_CODE":"US","ARG_OF_PERICENTER":"99.4797","TIME_SYSTEM":"UTC","ECCENTRICITY":"0.00012390","OBJECT_NAME":"STARLINK-3132","OBJECT_TYPE":"PAYLOAD","LAUNCH_DATE":"2021-11-13","MEAN_MOTION_DOT":"0.00011135","BSTAR":"0.00071652000000","CLASSIFICATION_TYPE":"U","MEAN_ELEMENT_THEORY":"SGP4","DECAY_DATE":null,"MEAN_MOTION":"15.08845191","EPHEMERIS_TYPE":"0","APOAPSIS":"540.587","INCLINATION":"53.2145","RA_OF_ASC_NODE":"94.3792","SEMIMAJOR_AXIS":"6917.865","TLE_LINE1":"1 49457U 21104BB  23069.77549792  .00011135  00000-0  71652-3 0  9992","ELEMENT_SET_NO":"999","FILE":"3856975","TLE_LINE2":"2 49457  53.2145  94.3792 0001239  99.4797 260.6335 15.08845191 73484","PERIAPSIS":"538.872","NORAD_CAT_ID":"49457","OBJECT_ID":"2021-104BB"},{"OBJECT_ID":"2021-104BC","NORAD_CAT_ID":"49458","PERIAPSIS":"539.091","TLE_LINE2":"2 49458  53.2157  95.8325 0001006  45.0744 315.0330 15.08826369 73438","TLE_LINE1":"1 49458U 21104BC  23069.45165136 -.00018869  00000-0 -11710-2 0  9995","ELEMENT_SET_NO":"999","FILE":"3856975","SEMIMAJOR_AXIS":"6917.922","RA_OF_ASC_NODE":"95.8325","INCLINATION":"53.2157","APOAPSIS":"540.483","EPHEMERIS_TYPE":"0","DECAY_DATE":null,"MEAN_MOTION":"15.08826369","MEAN_ELEMENT_THEORY":"SGP4","CLASSIFICATION_TYPE":"U","BSTAR":"-0.00117100000000","MEAN_MOTION_DOT":"-0.00018869","LAUNCH_DATE":"2021-11-13","OBJECT_TYPE":"PAYLOAD","OBJECT_NAME":"STARLINK-3156","ECCENTRICITY":"0.00010060","TIME_SYSTEM":"UTC","ARG_OF_PERICENTER":"45.0744","REV_AT_EPOCH":"7343","COUNTRY_CODE":"US","CENTER_NAME":"EARTH","SITE":"AFETR","MEAN_MOTION_DDOT":"0.0000000000000","RCS_SIZE":"LARGE","PERIOD":"95.438","REF_FRAME":"TEME","GP_ID":"227815005","EPOCH":"2023-03-10T10:50:22.677504","MEAN_ANOMALY":"315.0330"},{"SITE":"AFETR","MEAN_MOTION_DDOT":"0.0000000000000","CENTER_NAME":"EARTH","ARG_OF_PERICENTER":"92.6013","COUNTRY_CODE":"US","REV_AT_EPOCH":"7348","ECCENTRICITY":"0.00024240","TIME_SYSTEM":"UTC","EPOCH":"2023-03-10T18:31:25.687776","MEAN_ANOMALY":"267.5256","PERIOD":"95.438","REF_FRAME":"TEME","GP_ID":"227815255","RCS_SIZE":"LARGE","MEAN_MOTION":"15.08834408","DECAY_DATE":null,"MEAN_ELEMENT_THEORY":"SGP4","CLASSIFICATION_TYPE":"U","SEMIMAJOR_AXIS":"6917.897","RA_OF_ASC_NODE":"94.3955","INCLINATION":"53.2138","APOAPSIS":"541.439","EPHEMERIS_TYPE":"0","NORAD_CAT_ID":"49459","PERIAPSIS":"538.086","TLE_LINE2":"2 49459  53.2138  94.3955 0002424  92.6013 267.5256 15.08834408 73489","ELEMENT_SET_NO":"999","TLE_LINE1":"1 49459U 21104BD  23069.77182509  .00005997  00000-0  39461-3 0  9994","FILE":"3856975","OBJECT_ID":"2021-104BD","OBJECT_NAME":"STARLINK-3141","LAUNCH_DATE":"2021-11-13","OBJECT_TYPE":"PAYLOAD","BSTAR":"0.00039461000000","MEAN_MOTION_DOT":"0.00005997"}];
